0 CANX-2
1 32790U 08021H   13282.12018612  .00001242  00000-0  15517-3 0  7527
2 32790 097.7345 335.7628 0013434 295.6480 093.3495 14.84030269294747
0 CANX-2
1 32790U 08021H   13283.13599271  .00001245  00000-0  15551-3 0  7536
2 32790 097.7344 336.7475 0013380 291.9844 120.6321 14.84033123294890
0 CANX-2
1 32790U 08021H   13284.14801306  .00001290  00000-0  16083-3 0  7545
2 32790 097.7343 337.7286 0013379 288.2512 127.7775 14.84035116295042
0 CANX-2
1 32790U 08021H   13286.66129916  .00001234  00000-0  15411-3 0  7568
2 32790 097.7338 340.1650 0013385 279.1138 235.9799 14.84039705295416
0 CANX-2
1 32790U 08021H   13287.73391858  .00001484  00000-0  18406-3 0  7578
2 32790 097.7334 341.2047 0013409 275.2253 206.8689 14.84043570295573
0 CANX-2
1 32790U 08021H   13288.74506567  .00001638  00000-0  20252-3 0  7589
2 32790 097.7331 342.1849 0013435 271.5572 209.3376 14.84046670295724
0 CANX-2
1 32790U 08021H   13290.14315146  .00001385  00000-0  17223-3 0  7591
2 32790 097.7327 343.5402 0013476 266.4829 119.1973 14.84052939295931
0 CANX-2
1 32790U 08021H   13291.16096990  .00001318  00000-0  16419-3 0  7601
2 32790 097.7326 344.5266 0013511 262.8457 157.2801 14.84056463296082
0 CANX-2
1 32790U 08021H   13292.45515154  .00001455  00000-0  18055-3 0  7613
2 32790 097.7324 345.7809 0013574 258.2217 231.9617 14.84059558296272
0 CANX-2
1 32790U 08021H   13293.73358799  .00001665  00000-0  20566-3 0  7629
2 32790 097.7323 347.0199 0013646 253.6883 222.5041 14.84061861296464
0 CANX-2
1 32790U 08021H   13294.74946378  .00001779  00000-0  21933-3 0  7633
2 32790 097.7323 348.0044 0013688 250.0116 250.2948 14.84065683296617
0 CANX-2
1 32790U 08021H   13296.08241877  .00001707  00000-0  21068-3 0  7645
2 32790 097.7323 349.2961 0013751 245.2436 172.1827 14.84070882296817
